{
    "links": {
        "self": "http://www.neowsapp.com/rest/v1/neo/3788119?api_key=iIulBulltgU6a56xZRHN4H3l9WmuAYTsLGpBGhQ2"
    },
    "id": "3788119",
    "neo_reference_id": "3788119",
    "name": "(2017 UF8)",
    "designation": "2017 UF8",
    "nasa_jpl_url": "http://ssd.jpl.nasa.gov/sbdb.cgi?sstr=3788119",
    "absolute_magnitude_h": 24.8,
    "estimated_diameter": {
        "kilometers": {
            "estimated_diameter_min": 0.0291443905,
            "estimated_diameter_max": 0.0651688382
        },
        "meters": {
            "estimated_diameter_min": 29.1443904535,
            "estimated_diameter_max": 65.1688382168
        },
        "miles": {
            "estimated_diameter_min": 0.018109479,
            "estimated_diameter_max": 0.0404940262
        },
        "feet": {
            "estimated_diameter_min": 95.6180819754,
            "estimated_diameter_max": 213.8085311752
        }
    },
    "is_potentially_hazardous_asteroid": false,
    "close_approach_data": [
        {
            "close_approach_date": "2017-10-11",
            "close_approach_date_full": "2017-Oct-11 04:00",
            "epoch_date_close_approach": 1507694400000,
            "relative_velocity": {
                "kilometers_per_second": "11.2309623554",
                "kilometers_per_hour": "40431.4644792996",
                "miles_per_hour": "25122.539692707"
            },
            "miss_distance": {
                "astronomical": "0.0471604722",
                "lunar": "18.3454236858",
                "kilometers": "7055106.189314214",
                "miles": "4383839.7046915932"
            },
            "orbiting_body": "Earth"
        }
    ],
    "orbital_data": {
        "orbit_id": "1",
        "orbit_determination_date": "2017-10-29 10:31:07",
        "first_observation_date": "2017-10-27",
        "last_observation_date": "2017-10-29",
        "data_arc_in_days": 2,
        "observations_used": 30,
        "orbit_uncertainty": "9",
        "minimum_orbit_intersection": ".0397375",
        "jupiter_tisserand_invariant": "3.269",
        "epoch_osculation": "2458054.5",
        "eccentricity": ".5994253253474038",
        "semi_major_axis": "2.37826736779513",
        "inclination": "3.066595172069415",
        "ascending_node_longitude": "240.3941502273901",
        "orbital_period": "1339.644120293278",
        "perihelion_distance": ".9526736770914204",
        "perihelion_argument": "102.2125484887559",
        "aphelion_distance": "3.803861058498839",
        "perihelion_time": "2458011.198586565693",
        "mean_anomaly": "11.63630594141514",
        "mean_motion": ".2687280857256239",
        "equinox": "J2000",
        "orbit_class": {
            "orbit_class_type": "APO",
            "orbit_class_description": "Near-Earth asteroid orbits which cross the Earth’s orbit similar to that of 1862 Apollo",
            "orbit_class_range": "a (semi-major axis) > 1.0 AU; q (perihelion) < 1.017 AU"
        }
    },
    "is_sentry_object": false
}